ARIANE 5 R/B            
1 28499U 04049H   26171.43087523  .00000409  00000+0  51609-4 0  9995
2 28499  98.2723 343.8089 0084257  18.9811 341.4511 14.85452241161041
CZ-2D R/B               
1 28738U 05024B   26171.02428521  .00051696  00000+0  43299-3 0  9996
2 28738  97.3481 190.5942 0002904  47.7196 312.4312 15.69825717155784
ALOS (DAICHI)           
1 28931U 06002A   26171.42573416  .00000762  00000+0  13518-3 0  9995
2 28931  98.1324 126.9830 0001325  56.4754 303.6579 14.70055733 88579
H-2A R/B                
1 28932U 06002B   26171.41615500  .00005436  00000+0  26227-3 0  9990
2 28932  98.2572 327.5370 0049623 251.0264 108.5587 15.18095086110010
RESURS-DK 1             
1 29228U 06021A   26171.40661411  .00001448  00000+0  87373-4 0  9990
2 29228  69.9331 331.2197 0006868 290.2744  69.7684 15.13228164103061
CZ-4B R/B               
1 29507U 06046C   26171.15364409  .00002962  00000+0  14825-3 0  9999
2 29507  97.5448 215.7517 0030926 271.9092  87.8599 15.17800930 75585
CZ-2C R/B               
1 31114U 07010B   26171.30055291  .00000050  00000+0  41952-4 0  9999
2 31114  98.4102 279.4991 0058827 357.0679   3.0145 14.20276704994282
COSMO-SKYMED 1          
1 31598U 07023A   26171.47685628  .00002324  00000+0  20657-3 0  9994
2 31598  97.8851   3.3600 0001544  97.3990 262.7407 14.97113988 30281
COSMOS 2428             
1 31792U 07029A   26170.90473080 -.00000091  00000+0 -23180-4 0  9996
2 31792  70.9350 348.7715 0007125 129.7553 230.4196 14.12927887978536
SL-16 R/B               
1 31793U 07029B   26171.35404384 -.00000012  00000+0  18759-4 0  9996
2 31793  70.9771 316.5706 0002390 262.9025 119.5421 14.14855736979893
KORONAS-FOTON           
1 33504U 09003A   26171.44475332  .00010047  00000+0  20622-3 0  9992
2 33504  82.4290 168.8611 0011982 137.0460 223.1726 15.45780361961600
CZ-2C R/B               
1 37731U 11030B   26171.42757175  .00000955  00000+0  12584-3 0  9992
2 37731  97.8654 126.7551 0052789  17.5996  94.3487 14.81478072805300
H-2A R/B                
1 38341U 12025E   26171.43489571  .00001559  00000+0  14369-3 0  9992
2 38341  98.4832 146.8481 0043436 338.4525  21.4864 14.95733305763570
