[
    {
        "OBJECT_NAME": "ARIANE 5 R/B",
        "OBJECT_ID": "2004-049H",
        "EPOCH": "2026-06-20T10:20:27.619872",
        "MEAN_MOTION": 14.85452241,
        "ECCENTRICITY": 0.0084257,
        "INCLINATION": 98.2723,
        "RA_OF_ASC_NODE": 343.8089,
        "ARG_OF_PERICENTER": 18.9811,
        "MEAN_ANOMALY": 341.4511,
        "EPHEMERIS_TYPE": 0,
        "CLASSIFICATION_TYPE": "U",
        "NORAD_CAT_ID": 28499,
        "ELEMENT_SET_NO": 999,
        "REV_AT_EPOCH": 16104,
        "BSTAR": 5.1609e-05,
        "MEAN_MOTION_DOT": 4.09e-06,
        "MEAN_MOTION_DDOT": 0
    },
    {
        "OBJECT_NAME": "CZ-2D R/B",
        "OBJECT_ID": "2005-024B",
        "EPOCH": "2026-06-20T00:34:58.242144",
        "MEAN_MOTION": 15.69825717,
        "ECCENTRICITY": 0.00029046,
        "INCLINATION": 97.3481,
        "RA_OF_ASC_NODE": 190.5942,
        "ARG_OF_PERICENTER": 47.7196,
        "MEAN_ANOMALY": 312.4312,
        "EPHEMERIS_TYPE": 0,
        "CLASSIFICATION_TYPE": "U",
        "NORAD_CAT_ID": 28738,
        "ELEMENT_SET_NO": 999,
        "REV_AT_EPOCH": 15578,
        "BSTAR": 0.00043298778,
        "MEAN_MOTION_DOT": 0.00051696,
        "MEAN_MOTION_DDOT": 0
    },
    {
        "OBJECT_NAME": "ALOS (DAICHI)",
        "OBJECT_ID": "2006-002A",
        "EPOCH": "2026-06-20T10:13:03.431424",
        "MEAN_MOTION": 14.70055733,
        "ECCENTRICITY": 0.0001325,
        "INCLINATION": 98.1324,
        "RA_OF_ASC_NODE": 126.983,
        "ARG_OF_PERICENTER": 56.4754,
        "MEAN_ANOMALY": 303.6579,
        "EPHEMERIS_TYPE": 0,
        "CLASSIFICATION_TYPE": "U",
        "NORAD_CAT_ID": 28931,
        "ELEMENT_SET_NO": 999,
        "REV_AT_EPOCH": 8857,
        "BSTAR": 0.00013518,
        "MEAN_MOTION_DOT": 7.62e-06,
        "MEAN_MOTION_DDOT": 0
    },
    {
        "OBJECT_NAME": "H-2A R/B",
        "OBJECT_ID": "2006-002B",
        "EPOCH": "2026-06-20T09:59:15.792000",
        "MEAN_MOTION": 15.18095086,
        "ECCENTRICITY": 0.0049623,
        "INCLINATION": 98.2572,
        "RA_OF_ASC_NODE": 327.537,
        "ARG_OF_PERICENTER": 251.0264,
        "MEAN_ANOMALY": 108.5587,
        "EPHEMERIS_TYPE": 0,
        "CLASSIFICATION_TYPE": "U",
        "NORAD_CAT_ID": 28932,
        "ELEMENT_SET_NO": 999,
        "REV_AT_EPOCH": 11001,
        "BSTAR": 0.00026227,
        "MEAN_MOTION_DOT": 5.436e-05,
        "MEAN_MOTION_DDOT": 0
    },
    {
        "OBJECT_NAME": "RESURS-DK 1",
        "OBJECT_ID": "2006-021A",
        "EPOCH": "2026-06-20T09:45:31.459104",
        "MEAN_MOTION": 15.13228164,
        "ECCENTRICITY": 0.0006868,
        "INCLINATION": 69.9331,
        "RA_OF_ASC_NODE": 331.2197,
        "ARG_OF_PERICENTER": 290.2744,
        "MEAN_ANOMALY": 69.7684,
        "EPHEMERIS_TYPE": 0,
        "CLASSIFICATION_TYPE": "U",
        "NORAD_CAT_ID": 29228,
        "ELEMENT_SET_NO": 999,
        "REV_AT_EPOCH": 10306,
        "BSTAR": 8.7373e-05,
        "MEAN_MOTION_DOT": 1.448e-05,
        "MEAN_MOTION_DDOT": 0
    },
    {
        "OBJECT_NAME": "CZ-4B R/B",
        "OBJECT_ID": "2006-046C",
        "EPOCH": "2026-06-20T03:41:14.849376",
        "MEAN_MOTION": 15.1780093,
        "ECCENTRICITY": 0.00309263,
        "INCLINATION": 97.5448,
        "RA_OF_ASC_NODE": 215.7517,
        "ARG_OF_PERICENTER": 271.9092,
        "MEAN_ANOMALY": 87.8599,
        "EPHEMERIS_TYPE": 0,
        "CLASSIFICATION_TYPE": "U",
        "NORAD_CAT_ID": 29507,
        "ELEMENT_SET_NO": 999,
        "REV_AT_EPOCH": 7558,
        "BSTAR": 0.00014824626,
        "MEAN_MOTION_DOT": 2.962e-05,
        "MEAN_MOTION_DDOT": 0
    },
    {
        "OBJECT_NAME": "CZ-2C R/B",
        "OBJECT_ID": "2007-010B",
        "EPOCH": "2026-06-20T07:12:47.771424",
        "MEAN_MOTION": 14.20276704,
        "ECCENTRICITY": 0.0058827,
        "INCLINATION": 98.4102,
        "RA_OF_ASC_NODE": 279.4991,
        "ARG_OF_PERICENTER": 357.0679,
        "MEAN_ANOMALY": 3.0145,
        "EPHEMERIS_TYPE": 0,
        "CLASSIFICATION_TYPE": "U",
        "NORAD_CAT_ID": 31114,
        "ELEMENT_SET_NO": 999,
        "REV_AT_EPOCH": 99428,
        "BSTAR": 4.1952e-05,
        "MEAN_MOTION_DOT": 5e-07,
        "MEAN_MOTION_DDOT": 0
    },
    {
        "OBJECT_NAME": "COSMO-SKYMED 1",
        "OBJECT_ID": "2007-023A",
        "EPOCH": "2026-06-20T11:26:40.382592",
        "MEAN_MOTION": 14.97113988,
        "ECCENTRICITY": 0.0001544,
        "INCLINATION": 97.8851,
        "RA_OF_ASC_NODE": 3.36,
        "ARG_OF_PERICENTER": 97.399,
        "MEAN_ANOMALY": 262.7407,
        "EPHEMERIS_TYPE": 0,
        "CLASSIFICATION_TYPE": "U",
        "NORAD_CAT_ID": 31598,
        "ELEMENT_SET_NO": 999,
        "REV_AT_EPOCH": 3028,
        "BSTAR": 0.00020657,
        "MEAN_MOTION_DOT": 2.324e-05,
        "MEAN_MOTION_DDOT": 0
    },
    {
        "OBJECT_NAME": "COSMOS 2428",
        "OBJECT_ID": "2007-029A",
        "EPOCH": "2026-06-19T21:42:48.741120",
        "MEAN_MOTION": 14.12927887,
        "ECCENTRICITY": 0.00071255,
        "INCLINATION": 70.935,
        "RA_OF_ASC_NODE": 348.7715,
        "ARG_OF_PERICENTER": 129.7553,
        "MEAN_ANOMALY": 230.4196,
        "EPHEMERIS_TYPE": 0,
        "CLASSIFICATION_TYPE": "U",
        "NORAD_CAT_ID": 31792,
        "ELEMENT_SET_NO": 999,
        "REV_AT_EPOCH": 97853,
        "BSTAR": -2.3180398e-05,
        "MEAN_MOTION_DOT": -9.1e-07,
        "MEAN_MOTION_DDOT": 0
    },
    {
        "OBJECT_NAME": "SL-16 R/B",
        "OBJECT_ID": "2007-029B",
        "EPOCH": "2026-06-20T08:29:49.387776",
        "MEAN_MOTION": 14.14855736,
        "ECCENTRICITY": 0.000239,
        "INCLINATION": 70.9771,
        "RA_OF_ASC_NODE": 316.5706,
        "ARG_OF_PERICENTER": 262.9025,
        "MEAN_ANOMALY": 119.5421,
        "EPHEMERIS_TYPE": 0,
        "CLASSIFICATION_TYPE": "U",
        "NORAD_CAT_ID": 31793,
        "ELEMENT_SET_NO": 999,
        "REV_AT_EPOCH": 97989,
        "BSTAR": 1.8759e-05,
        "MEAN_MOTION_DOT": -1.2e-07,
        "MEAN_MOTION_DDOT": 0
    },
    {
        "OBJECT_NAME": "KORONAS-FOTON",
        "OBJECT_ID": "2009-003A",
        "EPOCH": "2026-06-20T10:40:26.686848",
        "MEAN_MOTION": 15.45780361,
        "ECCENTRICITY": 0.0011982,
        "INCLINATION": 82.429,
        "RA_OF_ASC_NODE": 168.8611,
        "ARG_OF_PERICENTER": 137.046,
        "MEAN_ANOMALY": 223.1726,
        "EPHEMERIS_TYPE": 0,
        "CLASSIFICATION_TYPE": "U",
        "NORAD_CAT_ID": 33504,
        "ELEMENT_SET_NO": 999,
        "REV_AT_EPOCH": 96160,
        "BSTAR": 0.00020622,
        "MEAN_MOTION_DOT": 0.00010047,
        "MEAN_MOTION_DDOT": 0
    },
    {
        "OBJECT_NAME": "CZ-2C R/B",
        "OBJECT_ID": "2011-030B",
        "EPOCH": "2026-06-20T10:15:42.199200",
        "MEAN_MOTION": 14.81478072,
        "ECCENTRICITY": 0.0052789,
        "INCLINATION": 97.8654,
        "RA_OF_ASC_NODE": 126.7551,
        "ARG_OF_PERICENTER": 17.5996,
        "MEAN_ANOMALY": 94.3487,
        "EPHEMERIS_TYPE": 0,
        "CLASSIFICATION_TYPE": "U",
        "NORAD_CAT_ID": 37731,
        "ELEMENT_SET_NO": 999,
        "REV_AT_EPOCH": 80530,
        "BSTAR": 0.00012584,
        "MEAN_MOTION_DOT": 9.55e-06,
        "MEAN_MOTION_DDOT": 0
    },
    {
        "OBJECT_NAME": "H-2A R/B",
        "OBJECT_ID": "2012-025E",
        "EPOCH": "2026-06-20T10:26:14.989344",
        "MEAN_MOTION": 14.95733305,
        "ECCENTRICITY": 0.0043436,
        "INCLINATION": 98.4832,
        "RA_OF_ASC_NODE": 146.8481,
        "ARG_OF_PERICENTER": 338.4525,
        "MEAN_ANOMALY": 21.4864,
        "EPHEMERIS_TYPE": 0,
        "CLASSIFICATION_TYPE": "U",
        "NORAD_CAT_ID": 38341,
        "ELEMENT_SET_NO": 999,
        "REV_AT_EPOCH": 76357,
        "BSTAR": 0.00014369,
        "MEAN_MOTION_DOT": 1.559e-05,
        "MEAN_MOTION_DDOT": 0
    }
]